{
  "norad_id": 53707,
  "name": "STARLINK-4667",
  "history": [
    {
      "epoch": "2026-03-28T13:33:00.198432",
      "apogee_km": 540.6700848752889,
      "perigee_km": 538.7981089564646,
      "latitude_deg": 1.1752023695768181,
      "longitude_deg": -35.0997795201838,
      "semi_major_axis_km": 6917.8710969158765,
      "eccentricity": 0.0001353,
      "inclination_deg": 53.2165,
      "raan_deg": 144.4014,
      "arg_perigee_deg": 100.8077,
      "mean_anomaly_deg": 259.3067,
      "mean_motion_rev_day": 15.0884304
    }
  ]
}