{"fetched_at":"2026-03-29T16:36:15Z","count":15609,"tles":[{"name":"STARLINK-4667","line1":"1 53707U 22107H   26087.56458563 -.00000249  00000+0  24284-5 0  9999","line2":"2 53707  53.2165 144.4014 0001353 100.8077 259.3067 15.08843040197911","category":"Starlink"}]}